start=new Date('2022-01-26T00:00:00.000Z').valueOf();
sats=[{"RCS_SIZE":"LARGE","MEAN_MOTION":"15.06394403","FILE":"3283711","ELEMENT_SET_NO":"999","PERIAPSIS":"545.898","GP_ID":"194643421","TIME_SYSTEM":"UTC","ARG_OF_PERICENTER":"71.1834","SITE":"AFETR","TLE_LINE2":"2 48034  53.0534 242.4481 0001925  71.1834 288.9363 15.06394403 47978","PERIOD":"95.592","OBJECT_ID":"2021-024BK","MEAN_ANOMALY":"288.9363","MEAN_MOTION_DDOT":"0.0000000000000","LAUNCH_DATE":"2021-03-24","OBJECT_TYPE":"PAYLOAD","REV_AT_EPOCH":"4797","MEAN_MOTION_DOT":"-0.00000398","EPOCH":"2022-01-25T21:20:24.565344","TLE_LINE1":"1 48034U 21024BK  22025.88917321 -.00000398  00000-0 -78363-5 0  9992","MEAN_ELEMENT_THEORY":"SGP4","REF_FRAME":"TEME","CENTER_NAME":"EARTH","INCLINATION":"53.0534","BSTAR":"-0.00000783630000","EPHEMERIS_TYPE":"0","CLASSIFICATION_TYPE":"U","SEMIMAJOR_AXIS":"6925.366","OBJECT_NAME":"STARLINK-2288","NORAD_CAT_ID":"48034","APOAPSIS":"548.564","ECCENTRICITY":"0.00019250","RA_OF_ASC_NODE":"242.4481","DECAY_DATE":null,"COUNTRY_CODE":"US"},{"FILE":"3283711","RCS_SIZE":"LARGE","MEAN_MOTION":"15.06393962","ELEMENT_SET_NO":"999","PERIAPSIS":"545.961","GP_ID":"194643673","TLE_LINE2":"2 48036  53.0542 242.4129 0001835  70.6728 289.4459 15.06393962 47975","PERIOD":"95.593","TIME_SYSTEM":"UTC","ARG_OF_PERICENTER":"70.6728","SITE":"AFETR","MEAN_ANOMALY":"289.4459","MEAN_MOTION_DDOT":"0.0000000000000","OBJECT_ID":"2021-024BM","REV_AT_EPOCH":"4797","OBJECT_TYPE":"PAYLOAD","MEAN_MOTION_DOT":"-0.00000795","EPOCH":"2022-01-25T21:31:01.905312","TLE_LINE1":"1 48036U 21024BM  22025.89654983 -.00000795  00000-0 -34473-4 0  9991","MEAN_ELEMENT_THEORY":"SGP4","REF_FRAME":"TEME","LAUNCH_DATE":"2021-03-24","CENTER_NAME":"EARTH","NORAD_CAT_ID":"48036","ECCENTRICITY":"0.00018350","APOAPSIS":"548.503","BSTAR":"-0.00003447300000","INCLINATION":"53.0542","EPHEMERIS_TYPE":"0","CLASSIFICATION_TYPE":"U","SEMIMAJOR_AXIS":"6925.367","OBJECT_NAME":"STARLINK-2295","COUNTRY_CODE":"US","RA_OF_ASC_NODE":"242.4129","DECAY_DATE":null},{"GP_ID":"194611756","PERIAPSIS":"546.315","ELEMENT_SET_NO":"999","FILE":"3283407","MEAN_MOTION":"15.06399310","RCS_SIZE":"LARGE","MEAN_MOTION_DDOT":"0.0000000000000","MEAN_ANOMALY":"276.4064","OBJECT_ID":"2021-027A","PERIOD":"95.592","TLE_LINE2":"2 48092  53.0578  10.1775 0001300  83.7073 276.4064 15.06399310 46710","SITE":"AFETR","ARG_OF_PERICENTER":"83.7073","TIME_SYSTEM":"UTC","CENTER_NAME":"EARTH","REF_FRAME":"TEME","TLE_LINE1":"1 48092U 21027A   22025.27774484  .00001021  00000-0  87437-4 0  9996","MEAN_ELEMENT_THEORY":"SGP4","OBJECT_TYPE":"PAYLOAD","REV_AT_EPOCH":"4671","MEAN_MOTION_DOT":"0.00001021","EPOCH":"2022-01-25T06:39:57.154176","LAUNCH_DATE":"2021-04-07","COUNTRY_CODE":"US","DECAY_DATE":null,"RA_OF_ASC_NODE":"10.1775","ECCENTRICITY":"0.00013000","APOAPSIS":"548.116","NORAD_CAT_ID":"48092","OBJECT_NAME":"STARLINK-2048","SEMIMAJOR_AXIS":"6925.351","EPHEMERIS_TYPE":"0","BSTAR":"0.00008743700000","INCLINATION":"53.0578","CLASSIFICATION_TYPE":"U"},{"CENTER_NAME":"EARTH","REV_AT_EPOCH":"4589","OBJECT_TYPE":"PAYLOAD","MEAN_MOTION_DOT":"-0.00001234","EPOCH":"2022-01-25T20:16:40.881504","REF_FRAME":"TEME","TLE_LINE1":"1 48093U 21027B   22025.84491761 -.00001234  00000-0 -63951-4 0  9997","MEAN_ELEMENT_THEORY":"SGP4","LAUNCH_DATE":"2021-04-07","COUNTRY_CODE":"US","RA_OF_ASC_NODE":"72.6486","DECAY_DATE":null,"APOAPSIS":"548.133","ECCENTRICITY":"0.00012930","NORAD_CAT_ID":"48093","SEMIMAJOR_AXIS":"6925.373","INCLINATION":"53.0564","BSTAR":"-0.00006395100000","CLASSIFICATION_TYPE":"U","EPHEMERIS_TYPE":"0","OBJECT_NAME":"STARLINK-2404","PERIAPSIS":"546.342","ELEMENT_SET_NO":"999","GP_ID":"194642928","FILE":"3283711","RCS_SIZE":"LARGE","MEAN_MOTION":"15.06392109","MEAN_ANOMALY":"279.3264","MEAN_MOTION_DDOT":"0.0000000000000","OBJECT_ID":"2021-027B","TLE_LINE2":"2 48093  53.0564  72.6486 0001293  80.7872 279.3264 15.06392109 45894","PERIOD":"95.593","TIME_SYSTEM":"UTC","ARG_OF_PERICENTER":"80.7872","SITE":"AFETR"},{"MEAN_MOTION":"15.06397544","RCS_SIZE":"LARGE","FILE":"3283407","GP_ID":"194611283","PERIAPSIS":"546.308","ELEMENT_SET_NO":"999","SITE":"AFETR","TIME_SYSTEM":"UTC","ARG_OF_PERICENTER":"75.0662","PERIOD":"95.592","TLE_LINE2":"2 48094  53.0549  83.9680 0001318  75.0662 285.0473 15.06397544 45716","OBJECT_ID":"2021-027C","MEAN_MOTION_DDOT":"0.0000000000000","MEAN_ANOMALY":"285.0473","LAUNCH_DATE":"2021-04-07","REF_FRAME":"TEME","TLE_LINE1":"1 48094U 21027C   22025.55007007 -.00000781  00000-0 -33546-4 0  9995","MEAN_ELEMENT_THEORY":"SGP4","MEAN_MOTION_DOT":"-0.00000781","OBJECT_TYPE":"PAYLOAD","REV_AT_EPOCH":"4571","EPOCH":"2022-01-25T13:12:06.054048","CENTER_NAME":"EARTH","OBJECT_NAME":"STARLINK-2412","SEMIMAJOR_AXIS":"6925.356","BSTAR":"-0.00003354600000","EPHEMERIS_TYPE":"0","INCLINATION":"53.0549","CLASSIFICATION_TYPE":"U","ECCENTRICITY":"0.00013180","APOAPSIS":"548.134","NORAD_CAT_ID":"48094","DECAY_DATE":null,"RA_OF_ASC_NODE":"83.9680","COUNTRY_CODE":"US"},{"CENTER_NAME":"EARTH","TLE_LINE1":"1 48095U 21027D   22025.55742767 -.00000212  00000-0  46624-5 0  9995","MEAN_ELEMENT_THEORY":"SGP4","REF_FRAME":"TEME","OBJECT_TYPE":"PAYLOAD","REV_AT_EPOCH":"4572","MEAN_MOTION_DOT":"-0.00000212","EPOCH":"2022-01-25T13:22:41.750688","LAUNCH_DATE":"2021-04-07","COUNTRY_CODE":"US","DECAY_DATE":null,"RA_OF_ASC_NODE":"83.9446","NORAD_CAT_ID":"48095","APOAPSIS":"548.159","ECCENTRICITY":"0.00013870","OBJECT_NAME":"STARLINK-2414","BSTAR":"0.00000466240000","CLASSIFICATION_TYPE":"U","INCLINATION":"53.0556","EPHEMERIS_TYPE":"0","SEMIMAJOR_AXIS":"6925.334","GP_ID":"194643930","ELEMENT_SET_NO":"999","PERIAPSIS":"546.238","FILE":"3283711","MEAN_MOTION":"15.06404829","RCS_SIZE":"LARGE","MEAN_MOTION_DDOT":"0.0000000000000","MEAN_ANOMALY":"286.1252","OBJECT_ID":"2021-027D","PERIOD":"95.592","TLE_LINE2":"2 48095  53.0556  83.9446 0001387  73.9890 286.1252 15.06404829 45724","SITE":"AFETR","TIME_SYSTEM":"UTC","ARG_OF_PERICENTER":"73.9890"},{"MEAN_ANOMALY":"290.8616","MEAN_MOTION_DDOT":"0.0000000000000","OBJECT_ID":"2021-027E","TLE_LINE2":"2 48096  53.0548  82.5717 0001316  69.2514 290.8616 15.06413461 45756","PERIOD":"95.591","ARG_OF_PERICENTER":"69.2514","TIME_SYSTEM":"UTC","SITE":"AFETR","ELEMENT_SET_NO":"999","PERIAPSIS":"546.261","GP_ID":"194643178","FILE":"3283711","RCS_SIZE":"LARGE","MEAN_MOTION":"15.06413461","COUNTRY_CODE":"US","RA_OF_ASC_NODE":"82.5717","DECAY_DATE":null,"NORAD_CAT_ID":"48096","APOAPSIS":"548.084","ECCENTRICITY":"0.00013160","BSTAR":"0.00033974000000","CLASSIFICATION_TYPE":"U","EPHEMERIS_TYPE":"0","INCLINATION":"53.0548","SEMIMAJOR_AXIS":"6925.307","OBJECT_NAME":"STARLINK-2417","CENTER_NAME":"EARTH","OBJECT_TYPE":"PAYLOAD","MEAN_MOTION_DOT":"0.00004784","REV_AT_EPOCH":"4575","EPOCH":"2022-01-25T20:43:14.707488","TLE_LINE1":"1 48096U 21027E   22025.86336467  .00004784  00000-0  33974-3 0  9995","MEAN_ELEMENT_THEORY":"SGP4","REF_FRAME":"TEME","LAUNCH_DATE":"2021-04-07"},{"CENTER_NAME":"EARTH","EPOCH":"2022-01-25T12:16:21.104832","OBJECT_TYPE":"PAYLOAD","MEAN_MOTION_DOT":"-0.00000389","REV_AT_EPOCH":"4598","TLE_LINE1":"1 48097U 21027F   22025.51135538 -.00000389  00000-0 -72295-5 0  9994","MEAN_ELEMENT_THEORY":"SGP4","REF_FRAME":"TEME","LAUNCH_DATE":"2021-04-07","COUNTRY_CODE":"US","RA_OF_ASC_NODE":"64.1402","DECAY_DATE":null,"NORAD_CAT_ID":"48097","APOAPSIS":"548.068","ECCENTRICITY":"0.00012370","INCLINATION":"53.0553","BSTAR":"-0.00000722950000","EPHEMERIS_TYPE":"0","CLASSIFICATION_TYPE":"U","SEMIMAJOR_AXIS":"6925.346","OBJECT_NAME":"STARLINK-2418","ELEMENT_SET_NO":"999","PERIAPSIS":"546.354","GP_ID":"194610540","FILE":"3283407","RCS_SIZE":"LARGE","MEAN_MOTION":"15.06400803","MEAN_ANOMALY":"267.5041","MEAN_MOTION_DDOT":"0.0000000000000","OBJECT_ID":"2021-027F","TLE_LINE2":"2 48097  53.0553  64.1402 0001237  92.6089 267.5041 15.06400803 45983","PERIOD":"95.592","ARG_OF_PERICENTER":"92.6089","TIME_SYSTEM":"UTC","SITE":"AFETR"},{"LAUNCH_DATE":"2021-04-07","MEAN_MOTION_DOT":"-0.00000642","OBJECT_TYPE":"PAYLOAD","REV_AT_EPOCH":"4588","EPOCH":"2022-01-25T19:40:53.179680","MEAN_ELEMENT_THEORY":"SGP4","TLE_LINE1":"1 48098U 21027G   22025.82005995 -.00000642  00000-0 -24200-4 0  9996","REF_FRAME":"TEME","CENTER_NAME":"EARTH","BSTAR":"-0.00002420000000","EPHEMERIS_TYPE":"0","INCLINATION":"53.0547","CLASSIFICATION_TYPE":"U","SEMIMAJOR_AXIS":"6925.335","OBJECT_NAME":"STARLINK-2421","NORAD_CAT_ID":"48098","APOAPSIS":"548.060","ECCENTRICITY":"0.00012420","RA_OF_ASC_NODE":"72.7635","DECAY_DATE":null,"COUNTRY_CODE":"US","RCS_SIZE":"LARGE","MEAN_MOTION":"15.06404334","FILE":"3283711","ELEMENT_SET_NO":"999","PERIAPSIS":"546.340","GP_ID":"194643680","TIME_SYSTEM":"UTC","ARG_OF_PERICENTER":"76.3596","SITE":"AFETR","TLE_LINE2":"2 48098  53.0547  72.7635 0001242  76.3596 283.7531 15.06404334 45884","PERIOD":"95.592","OBJECT_ID":"2021-027G","MEAN_ANOMALY":"283.7531","MEAN_MOTION_DDOT":"0.0000000000000"},{"ARG_OF_PERICENTER":"74.8964","TIME_SYSTEM":"UTC","SITE":"AFETR","TLE_LINE2":"2 48099  53.0553  83.9940 0001284  74.8964 285.2167 15.06399718 45705","PERIOD":"95.592","OBJECT_ID":"2021-027H","MEAN_ANOMALY":"285.2167","MEAN_MOTION_DDOT":"0.0000000000000","RCS_SIZE":"LARGE","MEAN_MOTION":"15.06399718","FILE":"3283407","PERIAPSIS":"546.325","ELEMENT_SET_NO":"999","GP_ID":"194611540","SEMIMAJOR_AXIS":"6925.349","BSTAR":"0.00004684800000","CLASSIFICATION_TYPE":"U","EPHEMERIS_TYPE":"0","INCLINATION":"53.0553","OBJECT_NAME":"STARLINK-2428","APOAPSIS":"548.104","ECCENTRICITY":"0.00012840","NORAD_CAT_ID":"48099","RA_OF_ASC_NODE":"83.9940","DECAY_DATE":null,"COUNTRY_CODE":"US","LAUNCH_DATE":"2021-04-07","MEAN_MOTION_DOT":"0.00000416","OBJECT_TYPE":"PAYLOAD","REV_AT_EPOCH":"4570","EPOCH":"2022-01-25T13:01:28.257888","REF_FRAME":"TEME","MEAN_ELEMENT_THEORY":"SGP4","TLE_LINE1":"1 48099U 21027H   22025.54268817  .00000416  00000-0  46848-4 0  9999","CENTER_NAME":"EARTH"}];
